CTC1_L_00487024-03
1 10186U 24069GH  26075.70035880  .00000000  00000+0  00000-0 0  9997
2 10186 100.0000 276.0000 0000000   0.0000 228.0000 13.29142335    10
CTC1_L_00487024-04
1 10187U 25234UT  26075.70035880  .00000000  00000+0  00000-0 0  9993
2 10187 100.0000 276.0000 0000000   0.0000 273.0000 13.29142335    11
CTC1_L_00487024-05
1 10188U 23379TH  26075.70035880  .00000000  00000+0  00000-0 0  9992
2 10188 100.0000 276.0000 0000000   0.0000 318.0000 13.29142335    12
CTC1_L_00487024-06
1 10189U 24328IL  26075.70035880  .00000000  00000+0  00000-0 0  9998
2 10189 100.0000 276.0000 0000000   0.0000   3.0000 13.29142335    14
CTC1_L_00487024-07
1 10190U 23850LK  26075.70035880  .00000000  00000+0  00000-0 0  9999
2 10190 100.0000 276.0000 0000000   0.0000  48.0000 13.29142335    15
CTC1_L_00487024-08
1 10191U 22045NI  26075.70035880  .00000000  00000+0  00000-0 0  9995
2 10191 100.0000 276.0000 0000000   0.0000  93.0000 13.29142335    16
CTC1_L_00487025-01
1 10192U 24682UV  26075.70035880  .00000000  00000+0  00000-0 0  9995
2 10192 100.0000 288.0000 0000000   0.0000 144.0000 13.29142335    17
CTC1_L_00487025-02
1 10193U 23553KY  26075.70035880  .00000000  00000+0  00000-0 0  9992
2 10193 100.0000 288.0000 0000000   0.0000 189.0000 13.29142335    17
CTC1_L_00487025-03
1 10194U 25153ES  26075.70035880  .00000000  00000+0  00000-0 0  9991
2 10194 100.0000 288.0000 0000000   0.0000 234.0000 13.29142335    19
CTC1_L_00487025-04
1 10195U 23796SM  26075.70035880  .00000000  00000+0  00000-0 0  9993
2 10195 100.0000 288.0000 0000000   0.0000 279.0000 13.29142335    19
CTC1_L_00487025-05
1 10196U 22578CD  26075.70035880  .00000000  00000+0  00000-0 0  9991
2 10196 100.0000 288.0000 0000000   0.0000 324.0000 13.29142335    11
CTC1_L_00487025-06
1 10197U 23289DG  26075.70035880  .00000000  00000+0  00000-0 0  9992
2 10197 100.0000 288.0000 0000000   0.0000   9.0000 13.29142335    12
CTC1_L_00487025-07
1 10198U 22511WP  26075.70035880  .00000000  00000+0  00000-0 0  9990
2 10198 100.0000 288.0000 0000000   0.0000  54.0000 13.29142335    13
CTC1_L_00487025-08
1 10199U 26902FX  26075.70035880  .00000000  00000+0  00000-0 0  9999
2 10199 100.0000 288.0000 0000000   0.0000  99.0000 13.29142335    13
CTC1_L_00487026-01
1 10200U 23825KP  26075.70035880  .00000000  00000+0  00000-0 0  9993
2 10200 100.0000 300.0000 0000000   0.0000 150.0000 13.29142335    19
CTC1_L_00487026-02
1 10201U 23762VS  26075.70035880  .00000000  00000+0  00000-0 0  9994
2 10201 100.0000 300.0000 0000000   0.0000 195.0000 13.29142335    19
CTC1_L_00487026-03
1 10202U 22477UJ  26075.70035880  .00000000  00000+0  00000-0 0  9997
2 10202 100.0000 300.0000 0000000   0.0000 240.0000 13.29142335    11
CTC1_L_00487026-04
1 10203U 23734KS  26075.70035880  .00000000  00000+0  00000-0 0  9995
2 10203 100.0000 300.0000 0000000   0.0000 285.0000 13.29142335    11
CTC1_L_00487026-05
1 10204U 23501QF  26075.70035880  .00000000  00000+0  00000-0 0  9998
2 10204 100.0000 300.0000 0000000   0.0000 330.0000 13.29142335    13
CTC1_L_00487026-06
1 10205U 24865QB  26075.70035880  .00000000  00000+0  00000-0 0  9993
2 10205 100.0000 300.0000 0000000   0.0000  15.0000 13.29142335    14
CTC1_L_00487026-07
1 10206U 22486VR  26075.70035880  .00000000  00000+0  00000-0 0  9991
2 10206 100.0000 300.0000 0000000   0.0000  60.0000 13.29142335    15
CTC1_L_00487026-08
1 10207U 26772WQ  26075.70035880  .00000000  00000+0  00000-0 0  9994
2 10207 100.0000 300.0000 0000000   0.0000 105.0000 13.29142335    16
CTC1_L_00487027-01
1 10208U 23130ES  26075.70035880  .00000000  00000+0  00000-0 0  9990
2 10208 100.0000 312.0000 0000000   0.0000 156.0000 13.29142335    16
CTC1_L_00487027-02
1 10209U 22981H   26075.70035880  .00000000  00000+0  00000-0 0  9994
2 10209 100.0000 312.0000 0000000   0.0000 201.0000 13.29142335    18
CTC1_L_00487027-03
1 10210U 26569IM  26075.70035880  .00000000  00000+0  00000-0 0  9992
2 10210 100.0000 312.0000 0000000   0.0000 246.0000 13.29142335    19
CTC1_L_00487027-04
1 10211U 22998AU  26075.70035880  .00000000  00000+0  00000-0 0  9995
2 10211 100.0000 312.0000 0000000   0.0000 291.0000 13.29142335    10
CTC1_L_00487027-05
1 10212U 23033RN  26075.70035880  .00000000  00000+0  00000-0 0  9997
2 10212 100.0000 312.0000 0000000   0.0000 336.0000 13.29142335    11
CTC1_L_00487027-06
1 10213U 26455S   26075.70035880  .00000000  00000+0  00000-0 0  9999
2 10213 100.0000 312.0000 0000000   0.0000  21.0000 13.29142335    13
CTC1_L_00487027-07
1 10214U 26127PM  26075.70035880  .00000000  00000+0  00000-0 0  9996
2 10214 100.0000 312.0000 0000000   0.0000  66.0000 13.29142335    13
CTC1_L_00487027-08
1 10215U 22354UU  26075.70035880  .00000000  00000+0  00000-0 0  9995
2 10215 100.0000 312.0000 0000000   0.0000 111.0000 13.29142335    15
CTC1_L_00487028-01
1 10216U 23455QP  26075.70035880  .00000000  00000+0  00000-0 0  9999
2 10216 100.0000 324.0000 0000000   0.0000 162.0000 13.29142335    15
CTC1_L_00487028-02
1 10217U 24341RT  26075.70035880  .00000000  00000+0  00000-0 0  9995
2 10217 100.0000 324.0000 0000000   0.0000 207.0000 13.29142335    16
CTC1_L_00487028-03
1 10218U 24042PP  26075.70035880  .00000000  00000+0  00000-0 0  9994
2 10218 100.0000 324.0000 0000000   0.0000 252.0000 13.29142335    17
CTC1_L_00487028-04
1 10219U 24448IH  26075.70035880  .00000000  00000+0  00000-0 0  9995
2 10219 100.0000 324.0000 0000000   0.0000 297.0000 13.29142335    17
CTC1_L_00487028-05
1 10220U 25146HP  26075.70035880  .00000000  00000+0  00000-0 0  9993
2 10220 100.0000 324.0000 0000000   0.0000 342.0000 13.29142335    10
CTC1_L_00487028-06
1 10221U 22884PE  26075.70035880  .00000000  00000+0  00000-0 0  9990
2 10221 100.0000 324.0000 0000000   0.0000  27.0000 13.29142335    11
CTC1_L_00487028-07
1 10222U 26311TX  26075.70035880  .00000000  00000+0  00000-0 0  9990
2 10222 100.0000 324.0000 0000000   0.0000  72.0000 13.29142335    12
CTC1_L_00487028-08
1 10223U 23234YW  26075.70035880  .00000000  00000+0  00000-0 0  9992
2 10223 100.0000 324.0000 0000000   0.0000 117.0000 13.29142335    13
CTC1_L_00487029-01
1 10224U 22770UL  26075.70035880  .00000000  00000+0  00000-0 0  9997
2 10224 100.0000 336.0000 0000000   0.0000 168.0000 13.29142335    13
CTC1_L_00487029-02
1 10225U 22198WN  26075.70035880  .00000000  00000+0  00000-0 0  9992
2 10225 100.0000 336.0000 0000000   0.0000 213.0000 13.29142335    15
CTC1_L_00487029-03
1 10226U 22271KA  26075.70035880  .00000000  00000+0  00000-0 0  9995
2 10226 100.0000 336.0000 0000000   0.0000 258.0000 13.29142335    15
CTC1_L_00487029-04
1 10227U 22530MP  26075.70035880  .00000000  00000+0  00000-0 0  9994
2 10227 100.0000 336.0000 0000000   0.0000 303.0000 13.29142335    17
CTC1_L_00487029-05
1 10228U 24175FO  26075.70035880  .00000000  00000+0  00000-0 0  9992
2 10228 100.0000 336.0000 0000000   0.0000 348.0000 13.29142335    17
CTC1_L_00487029-06
1 10229U 24913QD  26075.70035880  .00000000  00000+0  00000-0 0  9993
2 10229 100.0000 336.0000 0000000   0.0000  33.0000 13.29142335    19
CTC1_L_00487029-07
1 10230U 24822YY  26075.70035880  .00000000  00000+0  00000-0 0  9994
2 10230 100.0000 336.0000 0000000   0.0000  78.0000 13.29142335    10
CTC1_L_00487029-08
1 10231U 22248NT  26075.70035880  .00000000  00000+0  00000-0 0  9995
2 10231 100.0000 336.0000 0000000   0.0000 123.0000 13.29142335    12
CTC1_L_00487030-01
1 10232U 23409HU  26075.70035880  .00000000  00000+0  00000-0 0  9996
2 10232 100.0000 348.0000 0000000   0.0000 174.0000 13.29142335    12
CTC1_L_00487030-02
1 10233U 23200OE  26075.70035880  .00000000  00000+0  00000-0 0  9996
2 10233 100.0000 348.0000 0000000   0.0000 219.0000 13.29142335    13
CTC1_L_00487030-03
1 10234U 25863OW  26075.70035880  .00000000  00000+0  00000-0 0  9994
2 10234 100.0000 348.0000 0000000   0.0000 264.0000 13.29142335    14
CTC1_L_00487030-04
1 10235U 23543HF  26075.70035880  .00000000  00000+0  00000-0 0  9998
2 10235 100.0000 348.0000 0000000   0.0000 309.0000 13.29142335    15
CTC1_L_00487030-05
1 10236U 25688XA  26075.70035880  .00000000  00000+0  00000-0 0  9991
2 10236 100.0000 348.0000 0000000   0.0000 354.0000 13.29142335    16
CTC1_L_00487030-06
1 10237U 23508YK  26075.70035880  .00000000  00000+0  00000-0 0  9991
2 10237 100.0000 348.0000 0000000   0.0000  39.0000 13.29142335    17
CTC1_L_00487030-07
1 10238U 22499VL  26075.70035880  .00000000  00000+0  00000-0 0  9990
2 10238 100.0000 348.0000 0000000   0.0000  84.0000 13.29142335    18
CTC1_L_00487030-08
1 10239U 22394HO  26075.70035880  .00000000  00000+0  00000-0 0  9995
2 10239 100.0000 348.0000 0000000   0.0000 129.0000 13.29142335    19
